{
    "links": {
        "self": "http://www.neowsapp.com/rest/v1/neo/3648844?api_key=iIulBulltgU6a56xZRHN4H3l9WmuAYTsLGpBGhQ2"
    },
    "id": "3648844",
    "neo_reference_id": "3648844",
    "name": "(2013 TR4)",
    "designation": "2013 TR4",
    "nasa_jpl_url": "http://ssd.jpl.nasa.gov/sbdb.cgi?sstr=3648844",
    "absolute_magnitude_h": 23.3,
    "estimated_diameter": {
        "kilometers": {
            "estimated_diameter_min": 0.058150704,
            "estimated_diameter_max": 0.130028927
        },
        "meters": {
            "estimated_diameter_min": 58.1507039646,
            "estimated_diameter_max": 130.0289270043
        },
        "miles": {
            "estimated_diameter_min": 0.0361331611,
            "estimated_diameter_max": 0.0807962044
        },
        "feet": {
            "estimated_diameter_min": 190.7831555951,
            "estimated_diameter_max": 426.6041048727
        }
    },
    "is_potentially_hazardous_asteroid": false,
    "close_approach_data": [
        {
            "close_approach_date": "2006-08-29",
            "close_approach_date_full": "2006-Aug-29 21:09",
            "epoch_date_close_approach": 1156885740000,
            "relative_velocity": {
                "kilometers_per_second": "12.3022118329",
                "kilometers_per_hour": "44287.9625985847",
                "miles_per_hour": "27518.8176491039"
            },
            "miss_distance": {
                "astronomical": "0.3897810608",
                "lunar": "151.6248326512",
                "kilometers": "58310416.462020496",
                "miles": "36232412.6701990048"
            },
            "orbiting_body": "Earth"
        },
        {
            "close_approach_date": "2013-05-10",
            "close_approach_date_full": "2013-May-10 13:12",
            "epoch_date_close_approach": 1368191520000,
            "relative_velocity": {
                "kilometers_per_second": "12.8441766889",
                "kilometers_per_hour": "46239.0360801613",
                "miles_per_hour": "28731.1388354758"
            },
            "miss_distance": {
                "astronomical": "0.4016151237",
                "lunar": "156.2282831193",
                "kilometers": "60080767.065306519",
                "miles": "37332457.5253232022"
            },
            "orbiting_body": "Earth"
        },
        {
            "close_approach_date": "2013-10-01",
            "close_approach_date_full": "2013-Oct-01 07:01",
            "epoch_date_close_approach": 1380610860000,
            "relative_velocity": {
                "kilometers_per_second": "8.3067770986",
                "kilometers_per_hour": "29904.3975548056",
                "miles_per_hour": "18581.4296917624"
            },
            "miss_distance": {
                "astronomical": "0.2346085199",
                "lunar": "91.2627142411",
                "kilometers": "35096934.860892613",
                "miles": "21808224.0617715394"
            },
            "orbiting_body": "Earth"
        },
        {
            "close_approach_date": "2024-09-08",
            "close_approach_date_full": "2024-Sep-08 17:08",
            "epoch_date_close_approach": 1725815280000,
            "relative_velocity": {
                "kilometers_per_second": "9.3980551635",
                "kilometers_per_hour": "33832.9985887349",
                "miles_per_hour": "21022.509595317"
            },
            "miss_distance": {
                "astronomical": "0.2400626381",
                "lunar": "93.3843662209",
                "kilometers": "35912859.326340847",
                "miles": "22315216.0150718086"
            },
            "orbiting_body": "Earth"
        }
    ],
    "orbital_data": {
        "orbit_id": "6",
        "orbit_determination_date": "2017-04-06 08:44:22",
        "first_observation_date": "2013-10-03",
        "last_observation_date": "2013-10-13",
        "data_arc_in_days": 10,
        "observations_used": 24,
        "orbit_uncertainty": "7",
        "minimum_orbit_intersection": ".190324",
        "jupiter_tisserand_invariant": "5.127",
        "epoch_osculation": "2459000.5",
        "eccentricity": ".1239849402967932",
        "semi_major_axis": "1.240638151671831",
        "inclination": "15.64213069381871",
        "ascending_node_longitude": "194.3900655668969",
        "orbital_period": "504.7381427386345",
        "perihelion_distance": "1.086817704506875",
        "perihelion_argument": "88.39450073513092",
        "aphelion_distance": "1.394458598836787",
        "perihelion_time": "2458984.553516745484",
        "mean_anomaly": "11.37368763231836",
        "mean_motion": ".7132411234995898",
        "equinox": "J2000",
        "orbit_class": {
            "orbit_class_type": "AMO",
            "orbit_class_description": "Near-Earth asteroid orbits similar to that of 1221 Amor",
            "orbit_class_range": "1.017 AU < q (perihelion) < 1.3 AU"
        }
    },
    "is_sentry_object": false
}